[
  {
    "id": 0,
    "name": "Sir John Cass's Foundation Primary School",
    "address": "St James's Passage",
    "postcode": "EC3A 5DE"
  },
  {
    "id": 1,
    "name": "City of London School for Girls",
    "address": "St Giles' Terrace",
    "postcode": "EC2Y 8BB"
  },
  {
    "id": 2,
    "name": "St Paul's Cathedral School",
    "address": "2 New Change",
    "postcode": "EC4M 9AD"
  },
  {
    "id": 3,
    "name": "City of London School",
    "address": "Queen Victoria Street",
    "postcode": "EC4V 3AL"
  },
  {
    "id": 4,
    "name": "Thomas Coram Centre",
    "address": "49 Mecklenburgh Square",
    "postcode": "WC1N 2NY"
  },
  {
    "id": 5,
    "name": "CCfL Key Stage 4 PRU",
    "address": "Agincourt Road",
    "postcode": "NW3 2NY"
  },
  {
    "id": 6,
    "name": "Camden Primary Pupil Referral Unit",
    "address": "Robson House,",
    "postcode": "NW1 3EX"
  },
  {
    "id": 7,
    "name": "Argyle Primary School",
    "address": "Tonbridge Street",
    "postcode": "WC1H 9EG"
  },
  {
    "id": 8,
    "name": "Beckford Primary School",
    "address": "Dornfell Street",
    "postcode": "NW6 1QL"
  },
  {
    "id": 9,
    "name": "Brecknock Primary School",
    "address": "Cliff Villas",
    "postcode": "NW1 9AL"
  },
  {
    "id": 10,
    "name": "Brookfield Primary School",
    "address": "Chester Road",
    "postcode": "N19 5DH"
  },
  {
    "id": 11,
    "name": "Carlton Primary School",
    "address": "Grafton Road",
    "postcode": "NW5 4AX"
  },
  {
    "id": 12,
    "name": "Edith Neville Primary School",
    "address": "174 Ossulston Street",
    "postcode": "NW1 1DN"
  },
  {
    "id": 13,
    "name": "Fleet Primary School",
    "address": "Fleet Road",
    "postcode": "NW3 2QT"
  },
  {
    "id": 14,
    "name": "Hawley Primary School",
    "address": "Hawley Road",
    "postcode": "NW1 8RP"
  },
  {
    "id": 15,
    "name": "Netley Primary School & Centre for Autism",
    "address": "74 Stanhope Street",
    "postcode": "NW1 3EX"
  },
  {
    "id": 16,
    "name": "New End Primary School",
    "address": "Streatley Place",
    "postcode": "NW3 1HU"
  },
  {
    "id": 17,
    "name": "Primrose Hill School",
    "address": "Princess Road",
    "postcode": "NW1 8JL"
  },
  {
    "id": 18,
    "name": "Rhyl Primary School",
    "address": "Rhyl Street",
    "postcode": "NW5 3HB"
  },
  {
    "id": 19,
    "name": "Richard Cobden Primary School",
    "address": "Camden Street",
    "postcode": "NW1 0LL"
  },
  {
    "id": 20,
    "name": "Torriano Primary School",
    "address": "Torriano Avenue",
    "postcode": "NW5 2SJ"
  },
  {
    "id": 21,
    "name": "Gospel Oak Primary School",
    "address": "Mansfield Road",
    "postcode": "NW3 2JB"
  },
  {
    "id": 22,
    "name": "Fitzjohn's Primary School",
    "address": "86A Fitzjohn's Avenue",
    "postcode": "NW3 6NP"
  },
  {
    "id": 23,
    "name": "Eleanor Palmer Primary School",
    "address": "Lupton Street",
    "postcode": "NW5 2JA"
  },
  {
    "id": 24,
    "name": "Christ Church Primary School, Hampstead",
    "address": "Christ Church Hill",
    "postcode": "NW3 1JH"
  },
  {
    "id": 25,
    "name": "Christ Church School",
    "address": "Redhill Street",
    "postcode": "NW1 4BD"
  },
  {
    "id": 26,
    "name": "Emmanuel Church of England Primary School",
    "address": "152-158 Mill Lane",
    "postcode": "NW6 1TF"
  },
  {
    "id": 27,
    "name": "Hampstead Parochial Church of England Primary School",
    "address": "Holly Bush Vale",
    "postcode": "NW3 6TX"
  },
  {
    "id": 28,
    "name": "Holy Trinity CofE Primary School, NW3",
    "address": "Trinity Walk",
    "postcode": "NW3 5SQ"
  },
  {
    "id": 29,
    "name": "Holy Trinity and Saint Silas CofE Primary School, NW1",
    "address": "Hartland Road",
    "postcode": "NW1 8DE"
  },
  {
    "id": 30,
    "name": "Kentish Town Church of England Primary School",
    "address": "Islip Street",
    "postcode": "NW5 2TU"
  }
]
